[Satellite]
VERSION=1.1
NAME=BEIDOU I1-S
NICKNAME=BEIDOU I1-S
TLE1=1 40549U 15019A   17186.25501382 -.00000187  00000-0  00000-0 0  9994
TLE2=2 40549  54.3843 333.5657 0041052 186.2526 309.6113  1.00290556  8307
